[{"OBJECT_NAME":"LEMUR-2-AMANDA-SVANTE","OBJECT_ID":"2021-034B","EPOCH":"2026-03-09T18:37:58.823328","MEAN_MOTION":15.28469003,"ECCENTRICITY":0.00027027,"INCLINATION":97.5829,"RA_OF_ASC_NODE":144.8625,"ARG_OF_PERICENTER":205.4721,"MEAN_ANOMALY":154.6385,"EPHEMERIS_TYPE":0,"CLASSIFICATION_TYPE":"U","NORAD_CAT_ID":48269,"ELEMENT_SET_NO":999,"REV_AT_EPOCH":26584,"BSTAR":0.0011134246,"MEAN_MOTION_DOT":0.00030872,"MEAN_MOTION_DDOT":0},{"OBJECT_NAME":"STARLINK-2549","OBJECT_ID":"2021-036AQ","EPOCH":"2026-03-10T00:00:02.999808","MEAN_MOTION":15.29332673,"ECCENTRICITY":0.00013915,"INCLINATION":53.155,"RA_OF_ASC_NODE":89.1773,"ARG_OF_PERICENTER":87.7776,"MEAN_ANOMALY":73.5921,"EPHEMERIS_TYPE":0,"CLASSIFICATION_TYPE":"U","NORAD_CAT_ID":48314,"ELEMENT_SET_NO":999,"REV_AT_EPOCH":574,"BSTAR":0.0013509646,"MEAN_MOTION_DOT":0.00038803,"MEAN_MOTION_DDOT":0}]
